[{"OBJECT_NAME":"GAOFEN-9 03","OBJECT_ID":"2020-039A","EPOCH":"2026-03-09T21:55:15.121344","MEAN_MOTION":15.30529116,"ECCENTRICITY":0.0013094,"INCLINATION":97.5219,"RA_OF_ASC_NODE":201.2158,"ARG_OF_PERICENTER":77.4533,"MEAN_ANOMALY":282.8172,"EPHEMERIS_TYPE":0,"CLASSIFICATION_TYPE":"U","NORAD_CAT_ID":45794,"ELEMENT_SET_NO":999,"REV_AT_EPOCH":31856,"BSTAR":0.00039258132,"MEAN_MOTION_DOT":0.00011544,"MEAN_MOTION_DDOT":0},{"OBJECT_NAME":"STARLINK-35624","OBJECT_ID":"2025-240W","EPOCH":"2026-03-09T07:13:58.558080","MEAN_MOTION":15.30210705,"ECCENTRICITY":0.00013583,"INCLINATION":53.1608,"RA_OF_ASC_NODE":64.2741,"ARG_OF_PERICENTER":76.9142,"MEAN_ANOMALY":283.201,"EPHEMERIS_TYPE":0,"CLASSIFICATION_TYPE":"U","NORAD_CAT_ID":66166,"ELEMENT_SET_NO":999,"REV_AT_EPOCH":2193,"BSTAR":0.00083633548,"MEAN_MOTION_DOT":0.00024501,"MEAN_MOTION_DDOT":0}]
